GLOBALSTAR M045         
1 25676U 99019A   25312.55053042 -.00000037  00000+0  49594-3 0  9995
2 25676  51.9964 253.8004 0000708  70.9926 100.3199 12.27067997211111
GLOBALSTAR M019         
1 25677U 99019B   25312.63251044 -.00000038  00000+0  54429-3 0  9991
2 25677  51.9904  34.0959 0001028 225.6035 282.5882 12.13879499202687
GLOBALSTAR M044         
1 25678U 99019C   25312.55893852 -.00000101  00000+0 -24439-3 0  9992
2 25678  51.9998   3.7234 0005898 318.2553 190.7011 11.90259274188519
GLOBALSTAR M042         
1 25679U 99019D   25312.52084303 -.00000082  00000+0  99366-4 0  9992
2 25679  52.0041   3.4937 0002935 230.4921 269.8494 12.22090445202903
GLOBALSTAR M025         
1 25770U 99031A   25312.63521463 -.00000044  00000+0  73011-3 0  9999
2 25770  51.9782 184.6471 0003034  40.8527 331.1976 11.22558023497933
GLOBALSTAR M049         
1 25771U 99031B   25312.69862900 -.00000064  00000+0  37658-4 0  9990
2 25771  51.9858 226.5253 0002231 271.6512  88.4028 11.12121546133503
GLOBALSTAR M047         
1 25772U 99031C   25312.70879240 -.00000034  00000+0  99159-3 0  9998
2 25772  51.9812 209.6641 0016431 147.3709 212.8115 11.31930996487477
GLOBALSTAR M052         
1 25773U 99031D   25312.48759541 -.00000087  00000+0 -72293-3 0  9994
2 25773  51.9889 333.6493 0002647  51.4307  99.0483 11.15061350494605
